{
    "links": {
        "self": "http://www.neowsapp.com/rest/v1/neo/3776418?api_key=iIulBulltgU6a56xZRHN4H3l9WmuAYTsLGpBGhQ2"
    },
    "id": "3776418",
    "neo_reference_id": "3776418",
    "name": "(2017 NK2)",
    "designation": "2017 NK2",
    "nasa_jpl_url": "http://ssd.jpl.nasa.gov/sbdb.cgi?sstr=3776418",
    "absolute_magnitude_h": 26.6,
    "estimated_diameter": {
        "kilometers": {
            "estimated_diameter_min": 0.0127219879,
            "estimated_diameter_max": 0.0284472297
        },
        "meters": {
            "estimated_diameter_min": 12.7219878539,
            "estimated_diameter_max": 28.4472296503
        },
        "miles": {
            "estimated_diameter_min": 0.0079050743,
            "estimated_diameter_max": 0.0176762835
        },
        "feet": {
            "estimated_diameter_min": 41.7388066307,
            "estimated_diameter_max": 93.330808926
        }
    },
    "is_potentially_hazardous_asteroid": false,
    "close_approach_data": [
        {
            "close_approach_date": "2015-05-26",
            "close_approach_date_full": "2015-May-26 02:10",
            "epoch_date_close_approach": 1432606200000,
            "relative_velocity": {
                "kilometers_per_second": "17.8827861489",
                "kilometers_per_hour": "64378.0301359432",
                "miles_per_hour": "40002.0043364142"
            },
            "miss_distance": {
                "astronomical": "0.4037276872",
                "lunar": "157.0500703208",
                "kilometers": "60396802.065146264",
                "miles": "37528832.5681918832"
            },
            "orbiting_body": "Earth"
        },
        {
            "close_approach_date": "2017-07-09",
            "close_approach_date_full": "2017-Jul-09 22:43",
            "epoch_date_close_approach": 1499640180000,
            "relative_velocity": {
                "kilometers_per_second": "5.1561239512",
                "kilometers_per_hour": "18562.0462242152",
                "miles_per_hour": "11533.7336663741"
            },
            "miss_distance": {
                "astronomical": "0.0043252893",
                "lunar": "1.6825375377",
                "kilometers": "647054.066413791",
                "miles": "402060.7530646758"
            },
            "orbiting_body": "Moon"
        },
        {
            "close_approach_date": "2017-07-10",
            "close_approach_date_full": "2017-Jul-10 04:01",
            "epoch_date_close_approach": 1499659260000,
            "relative_velocity": {
                "kilometers_per_second": "6.0519549629",
                "kilometers_per_hour": "21787.0378663451",
                "miles_per_hour": "13537.618056452"
            },
            "miss_distance": {
                "astronomical": "0.0064359665",
                "lunar": "2.5035909685",
                "kilometers": "962806.879791355",
                "miles": "598260.453396499"
            },
            "orbiting_body": "Earth"
        },
        {
            "close_approach_date": "2019-09-13",
            "close_approach_date_full": "2019-Sep-13 06:13",
            "epoch_date_close_approach": 1568355180000,
            "relative_velocity": {
                "kilometers_per_second": "13.9476616259",
                "kilometers_per_hour": "50211.5818532364",
                "miles_per_hour": "31199.5242909735"
            },
            "miss_distance": {
                "astronomical": "0.2753051695",
                "lunar": "107.0937109355",
                "kilometers": "41185066.957188965",
                "miles": "25591213.926839117"
            },
            "orbiting_body": "Earth"
        }
    ],
    "orbital_data": {
        "orbit_id": "1",
        "orbit_determination_date": "2017-07-11 12:42:09",
        "first_observation_date": "2017-07-01",
        "last_observation_date": "2017-07-06",
        "data_arc_in_days": 5,
        "observations_used": 22,
        "orbit_uncertainty": "8",
        "minimum_orbit_intersection": ".00625547",
        "jupiter_tisserand_invariant": "4.233",
        "epoch_osculation": "2457936.5",
        "eccentricity": ".3762885182128764",
        "semi_major_axis": "1.626229139147863",
        "inclination": "3.844068553512873",
        "ascending_node_longitude": "105.3507727134131",
        "orbital_period": "757.4797632263544",
        "perihelion_distance": "1.014297786103312",
        "perihelion_argument": "196.2411639859451",
        "aphelion_distance": "2.238160492192414",
        "perihelion_time": "2457956.798989717440",
        "mean_anomaly": "350.3526976520762",
        "mean_motion": ".4752602214303945",
        "equinox": "J2000",
        "orbit_class": {
            "orbit_class_type": "APO",
            "orbit_class_description": "Near-Earth asteroid orbits which cross the Earth’s orbit similar to that of 1862 Apollo",
            "orbit_class_range": "a (semi-major axis) > 1.0 AU; q (perihelion) < 1.017 AU"
        }
    },
    "is_sentry_object": false
}